KAZSTSAT                
1 43783U 18099AB  26159.02425464  .00001432  00000+0  12008-3 0  9995
2 43783  97.4264 191.3697 0007813  93.5092 266.7026 14.99841772409938
SAUDISAT 5A             
1 43831U 18102A   26159.52052054  .00005891  00000+0  21830-3 0  9996
2 43831  97.3070 221.2689 0010380 156.1719 204.0003 15.27959118414353
SAUDISAT 5B             
1 43833U 18102C   26159.54083412  .00005302  00000+0  19519-3 0  9990
2 43833  97.3179 224.3427 0011016 158.7812 201.3887 15.28220224414471
GAOFEN-10R              
1 44622U 19066A   26159.51769193  .00001246  00000+0  15992-3 0  9995
2 44622  98.0498 113.0340 0006066 151.7157 208.4386 14.83042037361097
CARTOSAT-3              
1 44804U 19081A   26159.46328469  .00003785  00000+0  18268-3 0  9994
2 44804  97.4303 221.4706 0012331 177.5810 182.5487 15.19220394362146
GAOFEN-12 01            
1 44819U 19082A   26159.49603343  .00000420  00000+0  61592-4 0  9993
2 44819  97.8101 166.1049 0002476  80.6894 279.4599 14.80451586352800
CSG-1                   
1 44873U 19092A   26159.47750274  .00000471  00000+0  65681-4 0  9997
2 44873  97.8887 343.2063 0001447  90.5801 269.5578 14.82157820350182
NEMO-HD                 
1 46277U 20061F   26159.51295734  .00010261  00000+0  22379-3 0  9999
2 46277  97.1922 221.5543 0002586  90.0806 270.0739 15.44418717320649
SENTINEL-6A             
1 46984U 20086A   26159.34097909 -.00000032  00000+0  12636-3 0  9997
2 46984  66.0384 153.4260 0007931 270.3159  89.6947 12.80929774259196
CAS500-1                
1 47932U 21022A   26159.50584324  .00006202  00000+0  28906-3 0  9993
2 47932  97.3908  54.9344 0004127 336.9849  23.1201 15.20234458289448
GAOFEN-12 02            
1 48079U 21026A   26159.50616307  .00000407  00000+0  60418-4 0  9993
2 48079  97.9920 157.7224 0003330 260.3640  99.7196 14.80289614280479
PLEIADES NEO 3          
1 48268U 21034A   26159.54146013  .00001040  00000+0  13873-3 0  9994
2 48268  97.8926 234.4328 0001388  85.1173 275.0198 14.81669069276379
PLEIADES NEO 4          
1 49070U 21073E   26159.50770274  .00001665  00000+0  21821-3 0  9992
2 49070  97.8929 234.3949 0001397  84.6510 275.4862 14.81666331260083
LANDSAT 9               
1 49260U 21088A   26159.20074138  .00000333  00000+0  83991-4 0  9990
2 49260  98.2279 229.4865 0001458  88.4440 271.6926 14.57104692249694
CSG-2                   
1 51444U 22008A   26159.51123975 -.00000092  00000+0 -49845-5 0  9993
2 51444  97.8889 343.2347 0001388  81.8314 278.3057 14.82148729235301
GAOFEN-12 03            
1 52912U 22069A   26159.53450295  .00001210  00000+0  16665-3 0  9994
2 52912  97.8287  47.6223 0001714 110.0853 250.0544 14.80022761213330
SWOT                    
1 54754U 22173A   26159.48518976  .00000032  00000+0  23245-4 0  9995
2 54754  77.6112  47.0576 0000202  95.9307 264.1867 14.00168526177931
GAOFEN-12 04            
1 57654U 23123A   26159.55232134  .00001045  00000+0  14431-3 0  9991
2 57654  97.9129  77.6941 0001782  86.8379 273.3037 14.80212413151355
PARS 1                  
1 59065U 24039Q   26159.50981941  .00010267  00000+0  21522-3 0  9993
2 59065  97.4821 140.1577 0010934 137.4977 222.7120 15.45544787127307
RESURS-P 4              
1 59371U 24061A   26159.51136928  .00003156  00000+0  10436-3 0  9997
2 59371  97.2746 107.5617 0001521 132.5152 227.6219 15.32081826122434
LEGION 1                
1 59625U 24081A   26159.45204041  .00003495  00000+0  18212-3 0  9992
2 59625  97.5014 237.4027 0010315  46.1808 314.0276 15.16606302116211
LEGION 2                
1 59626U 24081B   26159.48190411  .00003746  00000+0  19498-3 0  9997
2 59626  97.5014 237.5300 0011608  14.6360 345.5206 15.16587067116225
ALOS-4 (DAICHI-4)       
1 60182U 24123A   26159.56914049  .00001561  00000+0  21588-3 0  9999
2 60182  97.9241 256.8638 0001634  97.5850 262.5547 14.79468139104601
LEGION 3                
1 60452U 24146A   26159.49881704  .00004621  00000+0  25005-3 0  9995
2 60452  45.0011  77.1496 0006903 115.2422 244.9172 15.15972953100703
LEGION 4                
1 60453U 24146B   26159.43595784  .00003298  00000+0  18217-3 0  9996
2 60453  45.0002 169.3979 0014073 262.8957  97.0321 15.15970882 99544
SENTINEL-2C             
1 60989U 24157A   26159.50121071  .00000102  00000+0  55653-4 0  9991
2 60989  98.5692 234.4058 0001172  79.5444 280.5871 14.30815518 91741
IONOSFERA-M 1           
1 61735U 24199A   26159.47337163  .00000038  00000+0  36635-4 0  9991
2 61735  98.7184  32.7372 0001692 122.1515 237.9827 14.22752682126466
IONOSFERA-M 2           
1 61736U 24199B   26159.50768824  .00000056  00000+0  44825-4 0  9998
2 61736  98.7183  32.6818 0001384  46.6073 313.5220 14.22755942129594
PRSC-EO1                
1 62725U 25012A   26159.48865716  .00006858  00000+0  34377-3 0  9993
2 62725  97.4223 232.1184 0004238 292.2257  67.8527 15.17658862 76870
BIOMASS                 
1 63772U 25090A   26159.51070727  .00000823  00000+0  15365-3 0  9998
2 63772  98.0741 346.9535 0001412  90.7649 269.3717 14.67535625 59412
GOSAT-GW (IBUKI GW)     
1 64694U 25141A   26159.53110171  .00001074  00000+0  19768-3 0  9999
2 64694  98.0573  96.9890 0001437  83.4006 276.7362 14.67551612 50578
