OBJECT_NAME,OBJECT_ID,EPOCH,MEAN_MOTION,ECCENTRICITY,INCLINATION,RA_OF_ASC_NODE,ARG_OF_PERICENTER,MEAN_ANOMALY,EPHEMERIS_TYPE,CLASSIFICATION_TYPE,NORAD_CAT_ID,ELEMENT_SET_NO,REV_AT_EPOCH,BSTAR,MEAN_MOTION_DOT,MEAN_MOTION_DDOT
KAZSTSAT,2018-099AB,2026-06-08T00:34:55.600896,14.99841772,.0007813,97.4264,191.3697,93.5092,266.7026,0,U,43783,999,40993,.12008305E-3,.1432E-4,0
SAUDISAT 5A,2018-102A,2026-06-08T12:29:32.974656,15.27959118,.001038,97.3070,221.2689,156.1719,204.0003,0,U,43831,999,41435,.2183E-3,.5891E-4,0
SAUDISAT 5B,2018-102C,2026-06-08T12:58:48.067968,15.28220224,.0011016,97.3179,224.3427,158.7812,201.3887,0,U,43833,999,41447,.19519E-3,.5302E-4,0
GAOFEN-10R,2019-066A,2026-06-08T12:25:28.582752,14.83042037,.0006066,98.0498,113.0340,151.7157,208.4386,0,U,44622,999,36109,.15992E-3,.1246E-4,0
CARTOSAT-3,2019-081A,2026-06-08T11:07:07.797216,15.19220394,.0012331,97.4303,221.4706,177.5810,182.5487,0,U,44804,999,36214,.18268E-3,.3785E-4,0
GAOFEN-12 01,2019-082A,2026-06-08T11:54:17.288352,14.80451586,.0002476,97.8101,166.1049,80.6894,279.4599,0,U,44819,999,35280,.61592E-4,.42E-5,0
CSG-1,2019-092A,2026-06-08T11:27:36.236736,14.82157820,.0001447,97.8887,343.2063,90.5801,269.5578,0,U,44873,999,35018,.65681E-4,.471E-5,0
NEMO-HD,2020-061F,2026-06-08T12:18:39.514176,15.44418717,.0002586,97.1922,221.5543,90.0806,270.0739,0,U,46277,999,32064,.22379E-3,.10261E-3,0
SENTINEL-6A,2020-086A,2026-06-08T08:11:00.593376,12.80929774,.0007931,66.0384,153.4260,270.3159,89.6947,0,U,46984,999,25919,.12636E-3,-.32E-6,0
CAS500-1,2021-022A,2026-06-08T12:08:24.855936,15.20234458,.0004127,97.3908,54.9344,336.9849,23.1201,0,U,47932,999,28944,.28906E-3,.6202E-4,0
GAOFEN-12 02,2021-026A,2026-06-08T12:08:52.489248,14.80289614,.000333,97.9920,157.7224,260.3640,99.7196,0,U,48079,999,28047,.60418E-4,.407E-5,0
PLEIADES NEO 3,2021-034A,2026-06-08T12:59:42.155232,14.81669069,.0001388,97.8926,234.4328,85.1173,275.0198,0,U,48268,999,27637,.13873E-3,.104E-4,0
PLEIADES NEO 4,2021-073E,2026-06-08T12:11:05.516736,14.81666331,.0001397,97.8929,234.3949,84.6510,275.4862,0,U,49070,999,26008,.21821E-3,.1665E-4,0
LANDSAT 9,2021-088A,2026-06-08T04:49:04.055232,14.57104692,.0001458,98.2279,229.4865,88.4440,271.6926,0,U,49260,999,24969,.83991E-4,.333E-5,0
CSG-2,2022-008A,2026-06-08T12:16:11.114400,14.82148729,.0001388,97.8889,343.2347,81.8314,278.3057,0,U,51444,999,23530,-.49845E-5,-.92E-6,0
GAOFEN-12 03,2022-069A,2026-06-08T12:49:41.054880,14.80022761,.0001714,97.8287,47.6223,110.0853,250.0544,0,U,52912,999,21333,.16665E-3,.121E-4,0
SWOT,2022-173A,2026-06-08T11:38:40.395264,14.00168526,.0000202,77.6112,47.0576,95.9307,264.1867,0,U,54754,999,17793,.23245E-4,.32E-6,0
GAOFEN-12 04,2023-123A,2026-06-08T13:15:20.563776,14.80212413,.0001782,97.9129,77.6941,86.8379,273.3037,0,U,57654,999,15135,.14431E-3,.1045E-4,0
PARS 1,2024-039Q,2026-06-08T12:14:08.397024,15.45544787,.0010934,97.4821,140.1577,137.4977,222.7120,0,U,59065,999,12730,.21522E-3,.10267E-3,0
RESURS-P 4,2024-061A,2026-06-08T12:16:22.305792,15.32081826,.0001521,97.2746,107.5617,132.5152,227.6219,0,U,59371,999,12243,.10436E-3,.3156E-4,0
LEGION 1,2024-081A,2026-06-08T10:50:56.291424,15.16606302,.0010315,97.5014,237.4027,46.1808,314.0276,0,U,59625,999,11621,.18212E-3,.3495E-4,0
LEGION 2,2024-081B,2026-06-08T11:33:56.515104,15.16587067,.0011608,97.5014,237.5300,14.6360,345.5206,0,U,59626,999,11622,.19498E-3,.3746E-4,0
ALOS-4 (DAICHI-4),2024-123A,2026-06-08T13:39:33.738336,14.79468139,.0001634,97.9241,256.8638,97.5850,262.5547,0,U,60182,999,10460,.21588E-3,.1561E-4,0
LEGION 3,2024-146A,2026-06-08T11:58:17.792256,15.15972953,.0006903,45.0011,77.1496,115.2422,244.9172,0,U,60452,999,10070,.25005E-3,.4621E-4,0
LEGION 4,2024-146B,2026-06-08T10:27:46.757376,15.15970882,.0014073,45.0002,169.3979,262.8957,97.0321,0,U,60453,999,9954,.18217E-3,.3298E-4,0
SENTINEL-2C,2024-157A,2026-06-08T12:01:44.605344,14.30815518,.0001172,98.5692,234.4058,79.5444,280.5871,0,U,60989,999,9174,.55653E-4,.102E-5,0
IONOSFERA-M 1,2024-199A,2026-06-08T11:21:39.308832,14.22752682,.0001692,98.7184,32.7372,122.1515,237.9827,0,U,61735,999,12646,.36635E-4,.38E-6,0
IONOSFERA-M 2,2024-199B,2026-06-08T12:11:04.263936,14.22755942,.0001384,98.7183,32.6818,46.6073,313.5220,0,U,61736,999,12959,.44825E-4,.56E-6,0
PRSC-EO1,2025-012A,2026-06-08T11:43:39.978624,15.17658862,.0004238,97.4223,232.1184,292.2257,67.8527,0,U,62725,999,7687,.34377E-3,.6858E-4,0
BIOMASS,2025-090A,2026-06-08T12:15:25.108128,14.67535625,.0001412,98.0741,346.9535,90.7649,269.3717,0,U,63772,999,5941,.15365E-3,.823E-5,0
GOSAT-GW (IBUKI GW),2025-141A,2026-06-08T12:44:47.187744,14.67551612,.0001437,98.0573,96.9890,83.4006,276.7362,0,U,64694,999,5057,.19768E-3,.1074E-4,0
